start=new Date('2022-10-26T00:00:00.000Z').valueOf();
sats=[{"DECAY_DATE":null,"OBJECT_NAME":"STARLINK-1908","CLASSIFICATION_TYPE":"U","REV_AT_EPOCH":"11114","EPOCH":"2022-10-25T17:48:08.255808","FILE":"3633327","MEAN_ELEMENT_THEORY":"SGP4","OBJECT_ID":"2020-074J","MEAN_MOTION_DOT":"-0.00000770","TIME_SYSTEM":"UTC","ELEMENT_SET_NO":"999","ARG_OF_PERICENTER":"116.9088","PERIOD":"95.593","TLE_LINE2":"2 46747  53.0539  87.5633 0001398 116.9088 243.2044 15.06384372111147","MEAN_ANOMALY":"243.2044","INCLINATION":"53.0539","BSTAR":"-0.00003278900000","RCS_SIZE":"LARGE","REF_FRAME":"TEME","GP_ID":"216151402","APOAPSIS":"548.230","PERIAPSIS":"546.293","MEAN_MOTION_DDOT":"0.0000000000000","ECCENTRICITY":"0.00013980","OBJECT_TYPE":"PAYLOAD","EPHEMERIS_TYPE":"0","MEAN_MOTION":"15.06384372","CENTER_NAME":"EARTH","SITE":"AFETR","TLE_LINE1":"1 46747U 20074J   22298.74176222 -.00000770  00000-0 -32789-4 0  9994","LAUNCH_DATE":"2020-10-24","NORAD_CAT_ID":"46747","SEMIMAJOR_AXIS":"6925.396","COUNTRY_CODE":"US","RA_OF_ASC_NODE":"87.5633"},{"OBJECT_ID":"2020-074K","MEAN_ELEMENT_THEORY":"SGP4","FILE":"3633327","EPOCH":"2022-10-25T19:34:16.979520","REV_AT_EPOCH":"11115","CLASSIFICATION_TYPE":"U","DECAY_DATE":null,"OBJECT_NAME":"STARLINK-1910","MEAN_ANOMALY":"252.2520","INCLINATION":"53.0549","PERIOD":"95.592","TLE_LINE2":"2 46748  53.0549  87.2265 0001495 107.8633 252.2520 15.06395447111155","ARG_OF_PERICENTER":"107.8633","TIME_SYSTEM":"UTC","ELEMENT_SET_NO":"999","MEAN_MOTION_DOT":"-0.00001184","ECCENTRICITY":"0.00014950","OBJECT_TYPE":"PAYLOAD","EPHEMERIS_TYPE":"0","MEAN_MOTION_DDOT":"0.0000000000000","PERIAPSIS":"546.192","REF_FRAME":"TEME","GP_ID":"216151654","APOAPSIS":"548.263","RCS_SIZE":"LARGE","BSTAR":"-0.00006058900000","COUNTRY_CODE":"US","RA_OF_ASC_NODE":"87.2265","SEMIMAJOR_AXIS":"6925.363","LAUNCH_DATE":"2020-10-24","NORAD_CAT_ID":"46748","MEAN_MOTION":"15.06395447","CENTER_NAME":"EARTH","SITE":"AFETR","TLE_LINE1":"1 46748U 20074K   22298.81547430 -.00001184  00000-0 -60589-4 0  9995"},{"PERIAPSIS":"546.325","APOAPSIS":"548.135","GP_ID":"216152404","REF_FRAME":"TEME","RCS_SIZE":"LARGE","BSTAR":"-0.00003629500000","EPHEMERIS_TYPE":"0","OBJECT_TYPE":"PAYLOAD","ECCENTRICITY":"0.00013070","MEAN_MOTION_DDOT":"0.0000000000000","NORAD_CAT_ID":"46749","LAUNCH_DATE":"2020-10-24","TLE_LINE1":"1 46749U 20074L   22298.75649727 -.00000822  00000-0 -36295-4 0  9996","SITE":"AFETR","MEAN_MOTION":"15.06394740","CENTER_NAME":"EARTH","RA_OF_ASC_NODE":"87.5002","COUNTRY_CODE":"US","SEMIMAJOR_AXIS":"6925.365","EPOCH":"2022-10-25T18:09:21.364128","REV_AT_EPOCH":"11114","CLASSIFICATION_TYPE":"U","OBJECT_NAME":"STARLINK-1911","DECAY_DATE":null,"OBJECT_ID":"2020-074L","MEAN_ELEMENT_THEORY":"SGP4","FILE":"3633327","ELEMENT_SET_NO":"999","TIME_SYSTEM":"UTC","MEAN_MOTION_DOT":"-0.00000822","MEAN_ANOMALY":"259.7423","INCLINATION":"53.0551","TLE_LINE2":"2 46749  53.0551  87.5002 0001307 100.3713 259.7423 15.06394740111148","PERIOD":"95.592","ARG_OF_PERICENTER":"100.3713"},{"SEMIMAJOR_AXIS":"6925.242","COUNTRY_CODE":"US","RA_OF_ASC_NODE":"87.8200","LAUNCH_DATE":"2020-10-24","NORAD_CAT_ID":"46751","CENTER_NAME":"EARTH","MEAN_MOTION":"15.06434615","SITE":"AFETR","TLE_LINE1":"1 46751U 20074N   22298.68646063 -.00010108  00000-0 -66005-3 0  9990","MEAN_MOTION_DDOT":"0.0000000000000","ECCENTRICITY":"0.00012120","EPHEMERIS_TYPE":"0","OBJECT_TYPE":"PAYLOAD","GP_ID":"216152634","REF_FRAME":"TEME","APOAPSIS":"547.947","PERIAPSIS":"546.268","BSTAR":"-0.00066005000000","RCS_SIZE":"LARGE","PERIOD":"95.590","TLE_LINE2":"2 46751  53.0559  87.8200 0001212 128.3963 231.7135 15.06434615111139","MEAN_ANOMALY":"231.7135","INCLINATION":"53.0559","ARG_OF_PERICENTER":"128.3963","TIME_SYSTEM":"UTC","ELEMENT_SET_NO":"999","MEAN_MOTION_DOT":"-0.00010108","OBJECT_ID":"2020-074N","FILE":"3633327","MEAN_ELEMENT_THEORY":"SGP4","REV_AT_EPOCH":"11113","EPOCH":"2022-10-25T16:28:30.198432","DECAY_DATE":null,"OBJECT_NAME":"STARLINK-1920","CLASSIFICATION_TYPE":"U"},{"MEAN_MOTION_DDOT":"0.0000000000000","ECCENTRICITY":"0.00014700","EPHEMERIS_TYPE":"0","OBJECT_TYPE":"PAYLOAD","REF_FRAME":"TEME","GP_ID":"216150904","APOAPSIS":"548.253","PERIAPSIS":"546.217","BSTAR":"-0.00002128900000","RCS_SIZE":"LARGE","SEMIMAJOR_AXIS":"6925.370","COUNTRY_CODE":"US","RA_OF_ASC_NODE":"87.7602","LAUNCH_DATE":"2020-10-24","NORAD_CAT_ID":"46752","MEAN_MOTION":"15.06392900","CENTER_NAME":"EARTH","TLE_LINE1":"1 46752U 20074P   22298.69752126 -.00000598  00000-0 -21289-4 0  9998","SITE":"AFETR","OBJECT_ID":"2020-074P","FILE":"3633327","MEAN_ELEMENT_THEORY":"SGP4","REV_AT_EPOCH":"11113","EPOCH":"2022-10-25T16:44:25.836864","DECAY_DATE":null,"OBJECT_NAME":"STARLINK-1921","CLASSIFICATION_TYPE":"U","PERIOD":"95.593","TLE_LINE2":"2 46752  53.0567  87.7602 0001470 114.8177 245.2965 15.06392900111138","INCLINATION":"53.0567","MEAN_ANOMALY":"245.2965","ARG_OF_PERICENTER":"114.8177","TIME_SYSTEM":"UTC","ELEMENT_SET_NO":"999","MEAN_MOTION_DOT":"-0.00000598"},{"OBJECT_TYPE":"PAYLOAD","EPHEMERIS_TYPE":"0","ECCENTRICITY":"0.00013570","MEAN_MOTION_DDOT":"0.0000000000000","PERIAPSIS":"546.332","APOAPSIS":"548.211","REF_FRAME":"TEME","GP_ID":"216152154","BSTAR":"-0.00006945100000","RCS_SIZE":"LARGE","RA_OF_ASC_NODE":"87.6148","COUNTRY_CODE":"US","SEMIMAJOR_AXIS":"6925.407","NORAD_CAT_ID":"46753","LAUNCH_DATE":"2020-10-24","TLE_LINE1":"1 46753U 20074Q   22298.73070869 -.00001315  00000-0 -69451-4 0  9992","SITE":"AFETR","CENTER_NAME":"EARTH","MEAN_MOTION":"15.06381085","OBJECT_ID":"2020-074Q","MEAN_ELEMENT_THEORY":"SGP4","FILE":"3633327","EPOCH":"2022-10-25T17:32:13.230816","REV_AT_EPOCH":"11114","CLASSIFICATION_TYPE":"U","OBJECT_NAME":"STARLINK-1922","DECAY_DATE":null,"INCLINATION":"53.0560","MEAN_ANOMALY":"266.5634","TLE_LINE2":"2 46753  53.0560  87.6148 0001357  93.5510 266.5634 15.06381085111146","PERIOD":"95.593","ARG_OF_PERICENTER":"93.5510","ELEMENT_SET_NO":"999","TIME_SYSTEM":"UTC","MEAN_MOTION_DOT":"-0.00001315"},{"MEAN_ANOMALY":"239.5341","INCLINATION":"53.0563","PERIOD":"95.592","TLE_LINE2":"2 46754  53.0563  87.5691 0001424 120.5789 239.5341 15.06405265111148","ARG_OF_PERICENTER":"120.5789","TIME_SYSTEM":"UTC","ELEMENT_SET_NO":"999","MEAN_MOTION_DOT":"0.00000224","OBJECT_ID":"2020-074R","MEAN_ELEMENT_THEORY":"SGP4","FILE":"3633327","EPOCH":"2022-10-25T17:42:47.716128","REV_AT_EPOCH":"11114","CLASSIFICATION_TYPE":"U","OBJECT_NAME":"STARLINK-1923","DECAY_DATE":null,"COUNTRY_CODE":"US","RA_OF_ASC_NODE":"87.5691","SEMIMAJOR_AXIS":"6925.332","LAUNCH_DATE":"2020-10-24","NORAD_CAT_ID":"46754","MEAN_MOTION":"15.06405265","CENTER_NAME":"EARTH","SITE":"AFETR","TLE_LINE1":"1 46754U 20074R   22298.73805227  .00000224  00000-0  33958-4 0  9996","ECCENTRICITY":"0.00014240","OBJECT_TYPE":"PAYLOAD","EPHEMERIS_TYPE":"0","MEAN_MOTION_DDOT":"0.0000000000000","PERIAPSIS":"546.211","REF_FRAME":"TEME","GP_ID":"216151905","APOAPSIS":"548.184","RCS_SIZE":"LARGE","BSTAR":"0.00003395800000"},{"MEAN_MOTION_DOT":"-0.00000265","TIME_SYSTEM":"UTC","ELEMENT_SET_NO":"999","ARG_OF_PERICENTER":"82.1249","INCLINATION":"53.0552","MEAN_ANOMALY":"277.9895","PERIOD":"95.592","TLE_LINE2":"2 46755  53.0552  92.5461 0001368  82.1249 277.9895 15.06398441111078","CLASSIFICATION_TYPE":"U","OBJECT_NAME":"STARLINK-1924","DECAY_DATE":null,"EPOCH":"2022-10-25T17:50:06.334368","REV_AT_EPOCH":"11107","MEAN_ELEMENT_THEORY":"SGP4","FILE":"3633327","OBJECT_ID":"2020-074S","MEAN_MOTION":"15.06398441","CENTER_NAME":"EARTH","SITE":"AFETR","TLE_LINE1":"1 46755U 20074S   22298.74312887 -.00000265  00000-0  11173-5 0  9995","LAUNCH_DATE":"2020-10-24","NORAD_CAT_ID":"46755","COUNTRY_CODE":"US","RA_OF_ASC_NODE":"92.5461","SEMIMAJOR_AXIS":"6925.353","RCS_SIZE":"LARGE","BSTAR":"0.00000111730000","PERIAPSIS":"546.271","REF_FRAME":"TEME","GP_ID":"216152136","APOAPSIS":"548.166","ECCENTRICITY":"0.00013680","OBJECT_TYPE":"PAYLOAD","EPHEMERIS_TYPE":"0","MEAN_MOTION_DDOT":"0.0000000000000"},{"MEAN_MOTION_DOT":"0.00000325","ELEMENT_SET_NO":"999","TIME_SYSTEM":"UTC","ARG_OF_PERICENTER":"122.5872","MEAN_ANOMALY":"237.5253","INCLINATION":"53.0547","TLE_LINE2":"2 46756  53.0547  92.5110 0001408 122.5872 237.5253 15.06396857111080","PERIOD":"95.592","CLASSIFICATION_TYPE":"U","OBJECT_NAME":"STARLINK-1925","DECAY_DATE":null,"EPOCH":"2022-10-25T20:08:11.556096","REV_AT_EPOCH":"11108","MEAN_ELEMENT_THEORY":"SGP4","FILE":"3633327","OBJECT_ID":"2020-074T","TLE_LINE1":"1 46756U 20074T   22298.83902264  .00000325  00000-0  40701-4 0  9994","SITE":"AFETR","MEAN_MOTION":"15.06396857","CENTER_NAME":"EARTH","NORAD_CAT_ID":"46756","LAUNCH_DATE":"2020-10-24","RA_OF_ASC_NODE":"92.5110","COUNTRY_CODE":"US","SEMIMAJOR_AXIS":"6925.358","RCS_SIZE":"LARGE","BSTAR":"0.00004070100000","PERIAPSIS":"546.248","APOAPSIS":"548.198","GP_ID":"216151403","REF_FRAME":"TEME","OBJECT_TYPE":"PAYLOAD","EPHEMERIS_TYPE":"0","ECCENTRICITY":"0.00014080","MEAN_MOTION_DDOT":"0.0000000000000"},{"NORAD_CAT_ID":"46757","LAUNCH_DATE":"2020-10-24","SITE":"AFETR","TLE_LINE1":"1 46757U 20074U   22298.72105113  .00000510  00000-0  53120-4 0  9996","MEAN_MOTION":"15.06388450","CENTER_NAME":"EARTH","SEMIMAJOR_AXIS":"6925.384","RA_OF_ASC_NODE":"92.8810","COUNTRY_CODE":"US","APOAPSIS":"548.129","REF_FRAME":"TEME","GP_ID":"216151655","PERIAPSIS":"546.369","RCS_SIZE":"LARGE","BSTAR":"0.00005312000000","MEAN_MOTION_DDOT":"0.0000000000000","OBJECT_TYPE":"PAYLOAD","EPHEMERIS_TYPE":"0","ECCENTRICITY":"0.00012710","ELEMENT_SET_NO":"999","TIME_SYSTEM":"UTC","MEAN_MOTION_DOT":"0.00000510","TLE_LINE2":"2 46757  53.0528  92.8810 0001271  85.6021 274.5113 15.06388450111067","PERIOD":"95.593","INCLINATION":"53.0528","MEAN_ANOMALY":"274.5113","ARG_OF_PERICENTER":"85.6021","REV_AT_EPOCH":"11106","EPOCH":"2022-10-25T17:18:18.817632","DECAY_DATE":null,"OBJECT_NAME":"STARLINK-1926","CLASSIFICATION_TYPE":"U","OBJECT_ID":"2020-074U","FILE":"3633327","MEAN_ELEMENT_THEORY":"SGP4"}];
